SCD 1                   
1 22490U 93009B   26185.50555985  .00000543  00000+0  97600-4 0  9999
2 22490  24.9692 100.6429 0041699 321.5251 200.4215 14.46126267763628
SCD 2                   
1 25504U 98060A   26185.64012696  .00000457  00000+0  76556-4 0  9993
2 25504  24.9964 324.5296 0016583 308.2024 153.1994 14.45532756462854
SENTINEL-1A             
1 39634U 14016A   26185.57891019 -.00000106  00000+0 -12693-4 0  9992
2 39634  98.1776 192.8577 0001368  84.1571 275.9784 14.59199688652553
SENTINEL-2A             
1 40697U 15028A   26185.62727711  .00000306  00000+0  13356-3 0  9996
2 40697  98.5680 260.2315 0001222  95.2587 264.8736 14.30820972576220
SENTINEL-3A             
1 41335U 16011A   26185.60878007  .00000164  00000+0  85832-4 0  9993
2 41335  98.6242 252.7417 0001426  93.8118 266.3226 14.26737858540546
SCATSAT 1               
1 41790U 16059H   26185.45883043  .00001562  00000+0  21093-3 0  9990
2 41790  98.1182 249.4027 0054414 191.0302 168.9720 14.79567077104140
SENTINEL-2B             
1 42063U 17013A   26185.62007006  .00000252  00000+0  11288-3 0  9991
2 42063  98.5687 260.1487 0001217  88.9791 271.1532 14.30813391487138
SENTINEL-2C             
1 60989U 24157A   26185.44526306  .00000048  00000+0  34872-4 0  9992
2 60989  98.5686 259.9829 0000917  93.9148 266.2139 14.30813178 95459
SENTINEL-1C             
1 62261U 24235A   26185.61829963 -.00000002  00000+0  93022-5 0  9992
2 62261  98.1823 192.6775 0001376  89.4218 270.7140 14.59198116 83957
SENTINEL-1D             
1 66315U 25251A   26185.44702329 -.00000088  00000+0 -90319-5 0  9993
2 66315  98.1835 192.5636 0001325  90.7708 269.3644 14.59197618 35240
